[
    {
        "Altitude(m)": 703331.5858385512,
        "Argument of Periapsis(deg)": 0.0011390121186627068,
        "Eccentricity": 0.0,
        "Inclination(deg)": 45.0,
        "Latitude(deg)": 23.290107333722894,
        "Longitude(deg)": 105.30032117307465,
        "Mean Anomaly(deg)": 33.880621664748105,
        "RAAN(deg)": 179.9989248058542,
        "Satellite Name": "Constellation 1 794",
        "Satellite Number": 794,
        "Semi-Major Axis(m)": 7083131.272910544,
        "Time(s)": 19
    },
    {
        "Altitude(m)": 703335.9313246701,
        "Argument of Periapsis(deg)": 0.0011989601249081123,
        "Eccentricity": 0.0,
        "Inclination(deg)": 45.0,
        "Latitude(deg)": 23.329109832283983,
        "Longitude(deg)": 105.34699268573456,
        "Mean Anomaly(deg)": 33.94132280499797,
        "RAAN(deg)": 179.99886821668858,
        "Satellite Name": "Constellation 1 794",
        "Satellite Number": 794,
        "Semi-Major Axis(m)": 7083131.272910544,
        "Time(s)": 20
    },
    {
        "Altitude(m)": 703340.2879154163,
        "Argument of Periapsis(deg)": 0.001258908131153518,
        "Eccentricity": 0.0,
        "Inclination(deg)": 45.0,
        "Latitude(deg)": 23.368095684372413,
        "Longitude(deg)": 105.39369384265865,
        "Mean Anomaly(deg)": 34.002023945247885,
        "RAAN(deg)": 179.99881162752303,
        "Satellite Name": "Constellation 1 794",
        "Satellite Number": 794,
        "Semi-Major Axis(m)": 7083131.272910544,
        "Time(s)": 21
    },
    {
        "Altitude(m)": 703344.6555753552,
        "Argument of Periapsis(deg)": 0.0013188561373989236,
        "Eccentricity": 0.0,
        "Inclination(deg)": 45.0,
        "Latitude(deg)": 23.40706484949527,
        "Longitude(deg)": 105.44042453588114,
        "Mean Anomaly(deg)": 34.06272508549777,
        "RAAN(deg)": 179.99875503835747,
        "Satellite Name": "Constellation 1 794",
        "Satellite Number": 794,
        "Semi-Major Axis(m)": 7083131.272910544,
        "Time(s)": 22
    },
    {
        "Altitude(m)": 703349.0342689961,
        "Argument of Periapsis(deg)": 0.0013788041436443293,
        "Eccentricity": 0.0,
        "Inclination(deg)": 45.0,
        "Latitude(deg)": 23.44601728710114,
        "Longitude(deg)": 105.48718516174392,
        "Mean Anomaly(deg)": 34.12342622574768,
        "RAAN(deg)": 179.9986984491919,
        "Satellite Name": "Constellation 1 794",
        "Satellite Number": 794,
        "Semi-Major Axis(m)": 7083131.272910544,
        "Time(s)": 23
    },
    {
        "Altitude(m)": 703353.4239608222,
        "Argument of Periapsis(deg)": 0.001438752149889735,
        "Eccentricity": 0.0,
        "Inclination(deg)": 45.0,
        "Latitude(deg)": 23.484952956580187,
        "Longitude(deg)": 105.5339756123135,
        "Mean Anomaly(deg)": 34.18412736599756,
        "RAAN(deg)": 179.99864186002634,
        "Satellite Name": "Constellation 1 794",
        "Satellite Number": 794,
        "Semi-Major Axis(m)": 7083131.272910544,
        "Time(s)": 24
    },
    {
        "Altitude(m)": 703357.8246152725,
        "Argument of Periapsis(deg)": 0.0014987001561351404,
        "Eccentricity": 0.0,
        "Inclination(deg)": 45.0,
        "Latitude(deg)": 23.523871817263984,
        "Longitude(deg)": 105.58079594776932,
        "Mean Anomaly(deg)": 34.24482850624748,
        "RAAN(deg)": 179.99858527086076,
        "Satellite Name": "Constellation 1 794",
        "Satellite Number": 794,
        "Semi-Major Axis(m)": 7083131.272910544,
        "Time(s)": 25
    },
    {
        "Altitude(m)": 703362.2361967462,
        "Argument of Periapsis(deg)": 0.001558648162380546,
        "Eccentricity": 0.0,
        "Inclination(deg)": 45.0,
        "Latitude(deg)": 23.56277382842532,
        "Longitude(deg)": 105.62764622830639,
        "Mean Anomaly(deg)": 34.30552964649736,
        "RAAN(deg)": 179.99852868169518,
        "Satellite Name": "Constellation 1 794",
        "Satellite Number": 794,
        "Semi-Major Axis(m)": 7083131.272910544,
        "Time(s)": 26
    },
    {
        "Altitude(m)": 703366.6586696206,
        "Argument of Periapsis(deg)": 0.0016185961686259519,
        "Eccentricity": 0.0,
        "Inclination(deg)": 45.0,
        "Latitude(deg)": 23.6016589492782,
        "Longitude(deg)": 105.67452651413518,
        "Mean Anomaly(deg)": 34.36623078674727,
        "RAAN(deg)": 179.99847209252962,
        "Satellite Name": "Constellation 1 794",
        "Satellite Number": 794,
        "Semi-Major Axis(m)": 7083131.272910544,
        "Time(s)": 27
    },
    {
        "Altitude(m)": 703371.091998211,
        "Argument of Periapsis(deg)": 0.0016785441748713573,
        "Eccentricity": 0.0,
        "Inclination(deg)": 45.0,
        "Latitude(deg)": 23.640527138977635,
        "Longitude(deg)": 105.72143686548127,
        "Mean Anomaly(deg)": 34.42693192699719,
        "RAAN(deg)": 179.99841550336404,
        "Satellite Name": "Constellation 1 794",
        "Satellite Number": 794,
        "Semi-Major Axis(m)": 7083131.272910544,
        "Time(s)": 28
    },
    {
        "Altitude(m)": 703375.5361468148,
        "Argument of Periapsis(deg)": 0.001738492181116763,
        "Eccentricity": 0.0,
        "Inclination(deg)": 45.0,
        "Latitude(deg)": 23.67937835661958,
        "Longitude(deg)": 105.76837734258504,
        "Mean Anomaly(deg)": 34.487633067247074,
        "RAAN(deg)": 179.9983589141985,
        "Satellite Name": "Constellation 1 794",
        "Satellite Number": 794,
        "Semi-Major Axis(m)": 7083131.272910544,
        "Time(s)": 29
    },
    {
        "Altitude(m)": 703379.9910796883,
        "Argument of Periapsis(deg)": 0.0017984401873621684,
        "Eccentricity": 0.0,
        "Inclination(deg)": 45.0,
        "Latitude(deg)": 23.718212561240897,
        "Longitude(deg)": 105.8153478376046,
        "Mean Anomaly(deg)": 34.54833420749696,
        "RAAN(deg)": 179.9983023250329,
        "Satellite Name": "Constellation 1 794",
        "Satellite Number": 794,
        "Semi-Major Axis(m)": 7083131.272910544,
        "Time(s)": 30
    },
    {
        "Altitude(m)": 703384.4567610419,
        "Argument of Periapsis(deg)": 0.0018583881936075745,
        "Eccentricity": 0.0,
        "Inclination(deg)": 45.0,
        "Latitude(deg)": 23.757029711819072,
        "Longitude(deg)": 105.8623487470041,
        "Mean Anomaly(deg)": 34.60903534774687,
        "RAAN(deg)": 179.99824573586733,
        "Satellite Name": "Constellation 1 794",
        "Satellite Number": 794,
        "Semi-Major Axis(m)": 7083131.272910544,
        "Time(s)": 31
    },
    {
        "Altitude(m)": 703388.9331550582,
        "Argument of Periapsis(deg)": 0.0019183361998529795,
        "Eccentricity": 0.0,
        "Inclination(deg)": 45.0,
        "Latitude(deg)": 23.795829767272274,
        "Longitude(deg)": 105.90937996297029,
        "Mean Anomaly(deg)": 34.669736487996786,
        "RAAN(deg)": 179.99818914670178,
        "Satellite Name": "Constellation 1 794",
        "Satellite Number": 794,
        "Semi-Major Axis(m)": 7083131.272910544,
        "Time(s)": 32
    },
    {
        "Altitude(m)": 703393.4202258814,
        "Argument of Periapsis(deg)": 0.0019782842060983856,
        "Eccentricity": 0.0,
        "Inclination(deg)": 45.0,
        "Latitude(deg)": 23.834612686459163,
        "Longitude(deg)": 105.95644154580127,
        "Mean Anomaly(deg)": 34.73043762824667,
        "RAAN(deg)": 179.99813255753622,
        "Satellite Name": "Constellation 1 794",
        "Satellite Number": 794,
        "Semi-Major Axis(m)": 7083131.272910544,
        "Time(s)": 33
    },
    {
        "Altitude(m)": 703397.9179376174,
        "Argument of Periapsis(deg)": 0.0020382322123437906,
        "Eccentricity": 0.0,
        "Inclination(deg)": 45.0,
        "Latitude(deg)": 23.8733784281788,
        "Longitude(deg)": 106.00353355580884,
        "Mean Anomaly(deg)": 34.79113876849656,
        "RAAN(deg)": 179.9980759683706,
        "Satellite Name": "Constellation 1 794",
        "Satellite Number": 794,
        "Semi-Major Axis(m)": 7083131.272910544,
        "Time(s)": 34
    },
    {
        "Altitude(m)": 703402.4262543394,
        "Argument of Periapsis(deg)": 0.002098180218589197,
        "Eccentricity": 0.0,
        "Inclination(deg)": 45.0,
        "Latitude(deg)": 23.912126951170542,
        "Longitude(deg)": 106.0506560533185,
        "Mean Anomaly(deg)": 34.85183990874645,
        "RAAN(deg)": 179.99801937920506,
        "Satellite Name": "Constellation 1 794",
        "Satellite Number": 794,
        "Semi-Major Axis(m)": 7083131.272910544,
        "Time(s)": 35
    },
    {
        "Altitude(m)": 703406.9451400818,
        "Argument of Periapsis(deg)": 0.002158128224834602,
        "Eccentricity": 0.0,
        "Inclination(deg)": 45.0,
        "Latitude(deg)": 23.950858214113932,
        "Longitude(deg)": 106.09780909866902,
        "Mean Anomaly(deg)": 34.91254104899636,
        "RAAN(deg)": 179.99796279003948,
        "Satellite Name": "Constellation 1 794",
        "Satellite Number": 794,
        "Semi-Major Axis(m)": 7083131.272910544,
        "Time(s)": 36
    },
    {
        "Altitude(m)": 703411.474558844,
        "Argument of Periapsis(deg)": 0.002218076231080008,
        "Eccentricity": 0.0,
        "Inclination(deg)": 45.0,
        "Latitude(deg)": 23.989572175628666,
        "Longitude(deg)": 106.14499258411523,
        "Mean Anomaly(deg)": 34.973242189246264,
        "RAAN(deg)": 179.99790620087393,
        "Satellite Name": "Constellation 1 794",
        "Satellite Number": 794,
        "Semi-Major Axis(m)": 7083131.272910544,
        "Time(s)": 37
    }
]